{
    "links": {
        "self": "http://www.neowsapp.com/rest/v1/neo/3407485?api_key=iIulBulltgU6a56xZRHN4H3l9WmuAYTsLGpBGhQ2"
    },
    "id": "3407485",
    "neo_reference_id": "3407485",
    "name": "(2008 FH5)",
    "designation": "2008 FH5",
    "nasa_jpl_url": "http://ssd.jpl.nasa.gov/sbdb.cgi?sstr=3407485",
    "absolute_magnitude_h": 27.0,
    "estimated_diameter": {
        "kilometers": {
            "estimated_diameter_min": 0.0105816886,
            "estimated_diameter_max": 0.023661375
        },
        "meters": {
            "estimated_diameter_min": 10.5816885933,
            "estimated_diameter_max": 23.6613750114
        },
        "miles": {
            "estimated_diameter_min": 0.0065751544,
            "estimated_diameter_max": 0.0147024923
        },
        "feet": {
            "estimated_diameter_min": 34.7168272045,
            "estimated_diameter_max": 77.6291855923
        }
    },
    "is_potentially_hazardous_asteroid": false,
    "close_approach_data": [
        {
            "close_approach_date": "2008-04-02",
            "close_approach_date_full": "2008-Apr-02 13:46",
            "epoch_date_close_approach": 1207143960000,
            "relative_velocity": {
                "kilometers_per_second": "10.3499499142",
                "kilometers_per_hour": "37259.8196911088",
                "miles_per_hour": "23151.802963067"
            },
            "miss_distance": {
                "astronomical": "0.0194584605",
                "lunar": "7.5693411345",
                "kilometers": "2910944.244279135",
                "miles": "1808776.879296663"
            },
            "orbiting_body": "Earth"
        }
    ],
    "orbital_data": {
        "orbit_id": "7",
        "orbit_determination_date": "2017-04-06 09:03:53",
        "first_observation_date": "2008-03-28",
        "last_observation_date": "2008-03-29",
        "data_arc_in_days": 1,
        "observations_used": 19,
        "orbit_uncertainty": "8",
        "minimum_orbit_intersection": ".00385724",
        "jupiter_tisserand_invariant": "3.702",
        "epoch_osculation": "2454554.5",
        "eccentricity": ".5201411616973097",
        "semi_major_axis": "1.960694037801305",
        "inclination": ".7560998810200809",
        "ascending_node_longitude": "179.4162754992975",
        "orbital_period": "1002.797330530173",
        "perihelion_distance": ".9408563632463453",
        "perihelion_argument": "51.45650222519764",
        "aphelion_distance": "2.980531712356265",
        "perihelion_time": "2454588.123335863868",
        "mean_anomaly": "347.9293646458024",
        "mean_motion": ".3589957701718951",
        "equinox": "J2000",
        "orbit_class": {
            "orbit_class_type": "APO",
            "orbit_class_description": "Near-Earth asteroid orbits which cross the Earth’s orbit similar to that of 1862 Apollo",
            "orbit_class_range": "a (semi-major axis) > 1.0 AU; q (perihelion) < 1.017 AU"
        }
    },
    "is_sentry_object": false
}